[{"OBJECT_NAME":"TECHNOSAT","OBJECT_ID":"2017-042E","EPOCH":"2026-03-05T00:54:35.171712","MEAN_MOTION":15.04237118,"ECCENTRICITY":0.00197346,"INCLINATION":97.4148,"RA_OF_ASC_NODE":225.7843,"ARG_OF_PERICENTER":90.3006,"MEAN_ANOMALY":270.0482,"EPHEMERIS_TYPE":0,"CLASSIFICATION_TYPE":"U","NORAD_CAT_ID":42829,"ELEMENT_SET_NO":999,"REV_AT_EPOCH":47104,"BSTAR":0.00038673254,"MEAN_MOTION_DOT":5.342e-5,"MEAN_MOTION_DDOT":0},{"OBJECT_NAME":"FLYING LAPTOP","OBJECT_ID":"2017-042G","EPOCH":"2026-03-05T07:26:29.173632","MEAN_MOTION":15.00481716,"ECCENTRICITY":0.00187264,"INCLINATION":97.4258,"RA_OF_ASC_NODE":224.1793,"ARG_OF_PERICENTER":109.6125,"MEAN_ANOMALY":250.7123,"EPHEMERIS_TYPE":0,"CLASSIFICATION_TYPE":"U","NORAD_CAT_ID":42831,"ELEMENT_SET_NO":999,"REV_AT_EPOCH":47087,"BSTAR":0.0003385778,"MEAN_MOTION_DOT":4.223e-5,"MEAN_MOTION_DDOT":0},{"OBJECT_NAME":"HAWK-A","OBJECT_ID":"2018-099H","EPOCH":"2026-03-05T03:26:30.487488","MEAN_MOTION":15.23143312,"ECCENTRICITY":0.0034379,"INCLINATION":97.4059,"RA_OF_ASC_NODE":117.7702,"ARG_OF_PERICENTER":292.161,"MEAN_ANOMALY":67.598,"EPHEMERIS_TYPE":0,"CLASSIFICATION_TYPE":"U","NORAD_CAT_ID":43765,"ELEMENT_SET_NO":999,"REV_AT_EPOCH":39725,"BSTAR":0.00040994511,"MEAN_MOTION_DOT":9.772e-5,"MEAN_MOTION_DDOT":0},{"OBJECT_NAME":"HAWK-B","OBJECT_ID":"2018-099AN","EPOCH":"2026-03-05T02:38:50.156736","MEAN_MOTION":15.21450948,"ECCENTRICITY":0.00316243,"INCLINATION":97.4108,"RA_OF_ASC_NODE":117.3609,"ARG_OF_PERICENTER":310.3033,"MEAN_ANOMALY":49.5439,"EPHEMERIS_TYPE":0,"CLASSIFICATION_TYPE":"U","NORAD_CAT_ID":43794,"ELEMENT_SET_NO":999,"REV_AT_EPOCH":39720,"BSTAR":0.0003821607,"MEAN_MOTION_DOT":8.635e-5,"MEAN_MOTION_DDOT":0},{"OBJECT_NAME":"HAWK-C","OBJECT_ID":"2018-099AT","EPOCH":"2026-03-05T03:34:46.033824","MEAN_MOTION":15.26303848,"ECCENTRICITY":0.00405501,"INCLINATION":97.4034,"RA_OF_ASC_NODE":118.1983,"ARG_OF_PERICENTER":294.1106,"MEAN_ANOMALY":65.5894,"EPHEMERIS_TYPE":0,"CLASSIFICATION_TYPE":"U","NORAD_CAT_ID":43799,"ELEMENT_SET_NO":999,"REV_AT_EPOCH":39803,"BSTAR":0.0004205544,"MEAN_MOTION_DOT":0.00011105,"MEAN_MOTION_DDOT":0},{"OBJECT_NAME":"SALSAT","OBJECT_ID":"2020-068K","EPOCH":"2026-03-05T05:17:18.375648","MEAN_MOTION":15.28075718,"ECCENTRICITY":0.00085909,"INCLINATION":97.8851,"RA_OF_ASC_NODE":61.0911,"ARG_OF_PERICENTER":315.6003,"MEAN_ANOMALY":44.4545,"EPHEMERIS_TYPE":0,"CLASSIFICATION_TYPE":"U","NORAD_CAT_ID":46495,"ELEMENT_SET_NO":999,"REV_AT_EPOCH":29947,"BSTAR":0.00043320384,"MEAN_MOTION_DOT":0.00011798,"MEAN_MOTION_DDOT":0},{"OBJECT_NAME":"HAWK-2C","OBJECT_ID":"2021-006CT","EPOCH":"2026-03-05T02:34:48.481248","MEAN_MOTION":15.33203975,"ECCENTRICITY":0.00064493,"INCLINATION":97.242,"RA_OF_ASC_NODE":110.5199,"ARG_OF_PERICENTER":201.1314,"MEAN_ANOMALY":158.9664,"EPHEMERIS_TYPE":0,"CLASSIFICATION_TYPE":"U","NORAD_CAT_ID":47502,"ELEMENT_SET_NO":999,"REV_AT_EPOCH":28354,"BSTAR":0.00027217363,"MEAN_MOTION_DOT":8.661e-5,"MEAN_MOTION_DDOT":0},{"OBJECT_NAME":"HAWK-2A","OBJECT_ID":"2021-006CW","EPOCH":"2026-03-05T02:39:56.497248","MEAN_MOTION":15.33222273,"ECCENTRICITY":0.00059647,"INCLINATION":97.2462,"RA_OF_ASC_NODE":111.1392,"ARG_OF_PERICENTER":204.0544,"MEAN_ANOMALY":156.0421,"EPHEMERIS_TYPE":0,"CLASSIFICATION_TYPE":"U","NORAD_CAT_ID":47505,"ELEMENT_SET_NO":999,"REV_AT_EPOCH":28354,"BSTAR":0.00028980278,"MEAN_MOTION_DOT":9.232e-5,"MEAN_MOTION_DDOT":0},{"OBJECT_NAME":"HAWK-2B","OBJECT_ID":"2021-006CZ","EPOCH":"2026-03-05T02:35:18.751488","MEAN_MOTION":15.33196758,"ECCENTRICITY":0.00065571,"INCLINATION":97.2337,"RA_OF_ASC_NODE":109.6429,"ARG_OF_PERICENTER":202.6842,"MEAN_ANOMALY":157.4112,"EPHEMERIS_TYPE":0,"CLASSIFICATION_TYPE":"U","NORAD_CAT_ID":47508,"ELEMENT_SET_NO":999,"REV_AT_EPOCH":28354,"BSTAR":0.0002764232,"MEAN_MOTION_DOT":8.796e-5,"MEAN_MOTION_DDOT":0},{"OBJECT_NAME":"HAWK-3B","OBJECT_ID":"2021-059BE","EPOCH":"2026-03-05T06:08:38.600448","MEAN_MOTION":15.61163809,"ECCENTRICITY":0.00053307,"INCLINATION":97.6712,"RA_OF_ASC_NODE":251.773,"ARG_OF_PERICENTER":355.5415,"MEAN_ANOMALY":4.5793,"EPHEMERIS_TYPE":0,"CLASSIFICATION_TYPE":"U","NORAD_CAT_ID":48931,"ELEMENT_SET_NO":999,"REV_AT_EPOCH":26159,"BSTAR":0.00052510739,"MEAN_MOTION_DOT":0.00044419,"MEAN_MOTION_DDOT":0},{"OBJECT_NAME":"HAWK-3C","OBJECT_ID":"2021-059BX","EPOCH":"2026-03-05T06:08:18.424320","MEAN_MOTION":15.61165918,"ECCENTRICITY":0.00058582,"INCLINATION":97.6859,"RA_OF_ASC_NODE":257.2634,"ARG_OF_PERICENTER":355.9194,"MEAN_ANOMALY":4.2013,"EPHEMERIS_TYPE":0,"CLASSIFICATION_TYPE":"U","NORAD_CAT_ID":48948,"ELEMENT_SET_NO":999,"REV_AT_EPOCH":26159,"BSTAR":0.00054390996,"MEAN_MOTION_DOT":0.00046033,"MEAN_MOTION_DDOT":0},{"OBJECT_NAME":"HAWK-3A","OBJECT_ID":"2021-059CG","EPOCH":"2026-03-05T01:31:09.348096","MEAN_MOTION":15.6115439,"ECCENTRICITY":0.0005443,"INCLINATION":97.6797,"RA_OF_ASC_NODE":254.3473,"ARG_OF_PERICENTER":356.2553,"MEAN_ANOMALY":3.8662,"EPHEMERIS_TYPE":0,"CLASSIFICATION_TYPE":"U","NORAD_CAT_ID":48957,"ELEMENT_SET_NO":999,"REV_AT_EPOCH":26156,"BSTAR":0.00056404919,"MEAN_MOTION_DOT":0.00047725,"MEAN_MOTION_DDOT":0},{"OBJECT_NAME":"HAWK-5C","OBJECT_ID":"2022-057Y","EPOCH":"2026-03-05T07:50:51.432288","MEAN_MOTION":15.47299392,"ECCENTRICITY":0.00056452,"INCLINATION":97.6449,"RA_OF_ASC_NODE":217.7113,"ARG_OF_PERICENTER":89.8875,"MEAN_ANOMALY":270.3021,"EPHEMERIS_TYPE":0,"CLASSIFICATION_TYPE":"U","NORAD_CAT_ID":52754,"ELEMENT_SET_NO":999,"REV_AT_EPOCH":21026,"BSTAR":0.00051379656,"MEAN_MOTION_DOT":0.00026177,"MEAN_MOTION_DDOT":0},{"OBJECT_NAME":"HAWK-5B","OBJECT_ID":"2022-057AA","EPOCH":"2026-03-05T06:17:32.539488","MEAN_MOTION":15.47297658,"ECCENTRICITY":0.00056293,"INCLINATION":97.6451,"RA_OF_ASC_NODE":215.9833,"ARG_OF_PERICENTER":85.1416,"MEAN_ANOMALY":275.0475,"EPHEMERIS_TYPE":0,"CLASSIFICATION_TYPE":"U","NORAD_CAT_ID":52756,"ELEMENT_SET_NO":999,"REV_AT_EPOCH":21025,"BSTAR":0.00051649489,"MEAN_MOTION_DOT":0.00026314,"MEAN_MOTION_DDOT":0},{"OBJECT_NAME":"HAWK-5A","OBJECT_ID":"2022-057AB","EPOCH":"2026-03-05T07:50:16.023840","MEAN_MOTION":15.47300279,"ECCENTRICITY":0.00060344,"INCLINATION":97.6452,"RA_OF_ASC_NODE":216.8853,"ARG_OF_PERICENTER":87.0831,"MEAN_ANOMALY":273.1109,"EPHEMERIS_TYPE":0,"CLASSIFICATION_TYPE":"U","NORAD_CAT_ID":52757,"ELEMENT_SET_NO":999,"REV_AT_EPOCH":21026,"BSTAR":0.00051442516,"MEAN_MOTION_DOT":0.00026213,"MEAN_MOTION_DDOT":0},{"OBJECT_NAME":"HAWK-6B","OBJECT_ID":"2023-011A","EPOCH":"2026-03-04T13:18:35.401824","MEAN_MOTION":15.21823496,"ECCENTRICITY":0.0002827,"INCLINATION":40.5118,"RA_OF_ASC_NODE":241.8769,"ARG_OF_PERICENTER":350.2508,"MEAN_ANOMALY":9.8246,"EPHEMERIS_TYPE":0,"CLASSIFICATION_TYPE":"U","NORAD_CAT_ID":55324,"ELEMENT_SET_NO":999,"REV_AT_EPOCH":17189,"BSTAR":0.00038986,"MEAN_MOTION_DOT":8.858e-5,"MEAN_MOTION_DDOT":0},{"OBJECT_NAME":"HAWK-6C","OBJECT_ID":"2023-011C","EPOCH":"2026-03-04T13:17:43.539360","MEAN_MOTION":15.2181737,"ECCENTRICITY":0.0003247,"INCLINATION":40.4822,"RA_OF_ASC_NODE":238.7594,"ARG_OF_PERICENTER":336.7138,"MEAN_ANOMALY":23.3523,"EPHEMERIS_TYPE":0,"CLASSIFICATION_TYPE":"U","NORAD_CAT_ID":55326,"ELEMENT_SET_NO":999,"REV_AT_EPOCH":17190,"BSTAR":0.00039915,"MEAN_MOTION_DOT":9.074e-5,"MEAN_MOTION_DDOT":0}]
