TECHNOSAT               
1 42829U 17042E   26064.03790708  .00005342  00000+0  38673-3 0  9994
2 42829  97.4148 225.7843 0019734  90.3006 270.0482 15.04237118471044
FLYING LAPTOP           
1 42831U 17042G   26064.31005988  .00004223  00000+0  33858-3 0  9994
2 42831  97.4258 224.1793 0018726 109.6125 250.7123 15.00481716470870
HAWK-A                  
1 43765U 18099H   26064.14340842  .00009772  00000+0  40995-3 0  9990
2 43765  97.4059 117.7702 0034379 292.1610  67.5980 15.23143312397259
HAWK-B                  
1 43794U 18099AN  26064.11030274  .00008635  00000+0  38216-3 0  9994
2 43794  97.4108 117.3609 0031624 310.3033  49.5439 15.21450948397208
HAWK-C                  
1 43799U 18099AT  26064.14914391  .00011105  00000+0  42055-3 0  9995
2 43799  97.4034 118.1983 0040550 294.1106  65.5894 15.26303848398039
SALSAT                  
1 46495U 20068K   26064.22035157  .00011798  00000+0  43320-3 0  9997
2 46495  97.8851  61.0911 0008590 315.6003  44.4545 15.28075718299477
HAWK-2C                 
1 47502U 21006CT  26064.10750557  .00008661  00000+0  27217-3 0  9997
2 47502  97.2420 110.5199 0006449 201.1314 158.9664 15.33203975283544
HAWK-2A                 
1 47505U 21006CW  26064.11107057  .00009232  00000+0  28980-3 0  9995
2 47505  97.2462 111.1392 0005964 204.0544 156.0421 15.33222273283545
HAWK-2B                 
1 47508U 21006CZ  26064.10785592  .00008796  00000+0  27642-3 0  9991
2 47508  97.2337 109.6429 0006557 202.6842 157.4112 15.33196758283546
HAWK-3B                 
1 48931U 21059BE  26064.25600232  .00044419  00000+0  52511-3 0  9998
2 48931  97.6712 251.7730 0005330 355.5415   4.5793 15.61163809261594
HAWK-3C                 
1 48948U 21059BX  26064.25576880  .00046033  00000+0  54391-3 0  9999
2 48948  97.6859 257.2634 0005858 355.9194   4.2013 15.61165918261596
HAWK-3A                 
1 48957U 21059CG  26064.06330264  .00047725  00000+0  56405-3 0  9999
2 48957  97.6797 254.3473 0005443 356.2553   3.8662 15.61154390261563
HAWK-5C                 
1 52754U 22057Y   26064.32698417  .00026177  00000+0  51380-3 0  9999
2 52754  97.6449 217.7113 0005645  89.8875 270.3021 15.47299392210268
HAWK-5B                 
1 52756U 22057AA  26064.26218217  .00026314  00000+0  51649-3 0  9991
2 52756  97.6451 215.9833 0005629  85.1416 275.0475 15.47297658210251
HAWK-5A                 
1 52757U 22057AB  26064.32657435  .00026213  00000+0  51443-3 0  9998
2 52757  97.6452 216.8853 0006034  87.0831 273.1109 15.47300279210266
HAWK-6B                 
1 55324U 23011A   26063.55457641  .00008858  00000+0  38986-3 0  9995
2 55324  40.5118 241.8769 0002827 350.2508   9.8246 15.21823496171895
HAWK-6C                 
1 55326U 23011C   26063.55397615  .00009074  00000+0  39915-3 0  9995
2 55326  40.4822 238.7594 0003247 336.7138  23.3523 15.21817370171909
